CCSDS_OMM_VERS = 2.0
CREATION_DATE  = 
ORIGINATOR     = 

OBJECT_NAME    = SL-3 R/B
OBJECT_ID      = 1988-032B
CENTER_NAME    = EARTH
REF_FRAME      = TEME
TIME_SYSTEM    = UTC
MEAN_ELEMENT_THEORY = SGP/SGP4

EPOCH          = 2026-03-22T05:46:37.536672
MEAN_MOTION    = 15.20041700
ECCENTRICITY   = .00256136
INCLINATION    = 97.5212
RA_OF_ASC_NODE = 64.4496
ARG_OF_PERICENTER = 186.1300
MEAN_ANOMALY   = 173.9626

EPHEMERIS_TYPE = 0
CLASSIFICATION_TYPE = U
NORAD_CAT_ID   = 19046
ELEMENT_SET_NO = 999
REV_AT_EPOCH   = 5401
BSTAR          = .28875313E-3
MEAN_MOTION_DOT = .621E-4
MEAN_MOTION_DDOT = 0

CCSDS_OMM_VERS = 2.0
CREATION_DATE  = 
ORIGINATOR     = 

OBJECT_NAME    = SL-16 R/B
OBJECT_ID      = 1988-039B
CENTER_NAME    = EARTH
REF_FRAME      = TEME
TIME_SYSTEM    = UTC
MEAN_ELEMENT_THEORY = SGP/SGP4

EPOCH          = 2026-03-22T05:46:45.056928
MEAN_MOTION    = 14.19617709
ECCENTRICITY   = .00233761
INCLINATION    = 71.0155
RA_OF_ASC_NODE = 42.0063
ARG_OF_PERICENTER = 316.2353
MEAN_ANOMALY   = 43.6919

EPHEMERIS_TYPE = 0
CLASSIFICATION_TYPE = U
NORAD_CAT_ID   = 19120
ELEMENT_SET_NO = 999
REV_AT_EPOCH   = 96016
BSTAR          = -.32540829E-4
MEAN_MOTION_DOT = -.117E-5
MEAN_MOTION_DDOT = 0

CCSDS_OMM_VERS = 2.0
CREATION_DATE  = 
ORIGINATOR     = 

OBJECT_NAME    = COSMOS 1953
OBJECT_ID      = 1988-050A
CENTER_NAME    = EARTH
REF_FRAME      = TEME
TIME_SYSTEM    = UTC
MEAN_ELEMENT_THEORY = SGP/SGP4

EPOCH          = 2026-03-22T06:13:35.842368
MEAN_MOTION    = 15.28719034
ECCENTRICITY   = .00126426
INCLINATION    = 82.5081
RA_OF_ASC_NODE = 145.6043
ARG_OF_PERICENTER = 83.3758
MEAN_ANOMALY   = 276.8920

EPHEMERIS_TYPE = 0
CLASSIFICATION_TYPE = U
NORAD_CAT_ID   = 19210
ELEMENT_SET_NO = 999
REV_AT_EPOCH   = 3970
BSTAR          = .33743562E-3
MEAN_MOTION_DOT = .9475E-4
MEAN_MOTION_DDOT = 0

CCSDS_OMM_VERS = 2.0
CREATION_DATE  = 
ORIGINATOR     = 

OBJECT_NAME    = SL-8 R/B
OBJECT_ID      = 1988-053B
CENTER_NAME    = EARTH
REF_FRAME      = TEME
TIME_SYSTEM    = UTC
MEAN_ELEMENT_THEORY = SGP/SGP4

EPOCH          = 2026-03-22T07:12:21.396960
MEAN_MOTION    = 14.38924207
ECCENTRICITY   = .00215299
INCLINATION    = 74.0451
RA_OF_ASC_NODE = 89.2191
ARG_OF_PERICENTER = 266.8415
MEAN_ANOMALY   = 103.8841

EPHEMERIS_TYPE = 0
CLASSIFICATION_TYPE = U
NORAD_CAT_ID   = 19257
ELEMENT_SET_NO = 999
REV_AT_EPOCH   = 97841
BSTAR          = .11212966E-3
MEAN_MOTION_DOT = .32E-5
MEAN_MOTION_DDOT = 0

CCSDS_OMM_VERS = 2.0
CREATION_DATE  = 
ORIGINATOR     = 

OBJECT_NAME    = COSMOS 1975
OBJECT_ID      = 1988-093A
CENTER_NAME    = EARTH
REF_FRAME      = TEME
TIME_SYSTEM    = UTC
MEAN_ELEMENT_THEORY = SGP/SGP4

EPOCH          = 2026-03-22T00:50:38.043456
MEAN_MOTION    = 15.28227119
ECCENTRICITY   = .00131248
INCLINATION    = 82.5161
RA_OF_ASC_NODE = 105.2881
ARG_OF_PERICENTER = 123.2058
MEAN_ANOMALY   = 237.0442

EPHEMERIS_TYPE = 0
CLASSIFICATION_TYPE = U
NORAD_CAT_ID   = 19573
ELEMENT_SET_NO = 999
REV_AT_EPOCH   = 2129
BSTAR          = .28462521E-3
MEAN_MOTION_DOT = .7879E-4
MEAN_MOTION_DDOT = 0

CCSDS_OMM_VERS = 2.0
CREATION_DATE  = 
ORIGINATOR     = 

OBJECT_NAME    = SL-14 R/B
OBJECT_ID      = 1988-093B
CENTER_NAME    = EARTH
REF_FRAME      = TEME
TIME_SYSTEM    = UTC
MEAN_ELEMENT_THEORY = SGP/SGP4

EPOCH          = 2026-03-22T06:24:20.879712
MEAN_MOTION    = 14.85671007
ECCENTRICITY   = .00207016
INCLINATION    = 82.5330
RA_OF_ASC_NODE = 30.2380
ARG_OF_PERICENTER = 1.1151
MEAN_ANOMALY   = 112.9364

EPHEMERIS_TYPE = 0
CLASSIFICATION_TYPE = U
NORAD_CAT_ID   = 19574
ELEMENT_SET_NO = 999
REV_AT_EPOCH   = 288
BSTAR          = .61688556E-4
MEAN_MOTION_DOT = .561E-5
MEAN_MOTION_DDOT = 0

CCSDS_OMM_VERS = 2.0
CREATION_DATE  = 
ORIGINATOR     = 

OBJECT_NAME    = SL-16 R/B
OBJECT_ID      = 1988-102B
CENTER_NAME    = EARTH
REF_FRAME      = TEME
TIME_SYSTEM    = UTC
MEAN_ELEMENT_THEORY = SGP/SGP4

EPOCH          = 2026-03-22T06:23:03.437664
MEAN_MOTION    = 14.16155342
ECCENTRICITY   = .00148435
INCLINATION    = 70.9985
RA_OF_ASC_NODE = 125.0362
ARG_OF_PERICENTER = 342.0732
MEAN_ANOMALY   = 17.9866

EPHEMERIS_TYPE = 0
CLASSIFICATION_TYPE = U
NORAD_CAT_ID   = 19650
ELEMENT_SET_NO = 999
REV_AT_EPOCH   = 92867
BSTAR          = -.86868468E-4
MEAN_MOTION_DOT = -.22E-5
MEAN_MOTION_DDOT = 0

CCSDS_OMM_VERS = 2.0
CREATION_DATE  = 
ORIGINATOR     = 

OBJECT_NAME    = INTERCOSMOS 24
OBJECT_ID      = 1989-080A
CENTER_NAME    = EARTH
REF_FRAME      = TEME
TIME_SYSTEM    = UTC
MEAN_ELEMENT_THEORY = SGP/SGP4

EPOCH          = 2026-03-22T02:44:37.695552
MEAN_MOTION    = 12.59574590
ECCENTRICITY   = .11867225
INCLINATION    = 82.6015
RA_OF_ASC_NODE = 96.3111
ARG_OF_PERICENTER = 263.9527
MEAN_ANOMALY   = 82.5401

EPHEMERIS_TYPE = 0
CLASSIFICATION_TYPE = U
NORAD_CAT_ID   = 20261
ELEMENT_SET_NO = 999
REV_AT_EPOCH   = 66836
BSTAR          = .15890794E-3
MEAN_MOTION_DOT = .535E-5
MEAN_MOTION_DDOT = 0

CCSDS_OMM_VERS = 2.0
CREATION_DATE  = 
ORIGINATOR     = 

OBJECT_NAME    = SL-14 R/B
OBJECT_ID      = 1989-080C
CENTER_NAME    = EARTH
REF_FRAME      = TEME
TIME_SYSTEM    = UTC
MEAN_ELEMENT_THEORY = SGP/SGP4

EPOCH          = 2026-03-22T06:41:36.051936
MEAN_MOTION    = 12.50506537
ECCENTRICITY   = .12308435
INCLINATION    = 82.5967
RA_OF_ASC_NODE = 165.1079
ARG_OF_PERICENTER = 155.9864
MEAN_ANOMALY   = 210.4049

EPHEMERIS_TYPE = 0
CLASSIFICATION_TYPE = U
NORAD_CAT_ID   = 20262
ELEMENT_SET_NO = 999
REV_AT_EPOCH   = 66172
BSTAR          = .12243638E-3
MEAN_MOTION_DOT = .431E-5
MEAN_MOTION_DDOT = 0

CCSDS_OMM_VERS = 2.0
CREATION_DATE  = 
ORIGINATOR     = 

OBJECT_NAME    = DELTA 1 R/B
OBJECT_ID      = 1989-089B
CENTER_NAME    = EARTH
REF_FRAME      = TEME
TIME_SYSTEM    = UTC
MEAN_ELEMENT_THEORY = SGP/SGP4

EPOCH          = 2026-03-22T02:31:48.484128
MEAN_MOTION    = 14.50673176
ECCENTRICITY   = .00707071
INCLINATION    = 97.0695
RA_OF_ASC_NODE = 286.5684
ARG_OF_PERICENTER = 83.5213
MEAN_ANOMALY   = 277.4030

EPHEMERIS_TYPE = 0
CLASSIFICATION_TYPE = U
NORAD_CAT_ID   = 20323
ELEMENT_SET_NO = 999
REV_AT_EPOCH   = 89753
BSTAR          = .91119546E-4
MEAN_MOTION_DOT = .335E-5
MEAN_MOTION_DDOT = 0

CCSDS_OMM_VERS = 2.0
CREATION_DATE  = 
ORIGINATOR     = 

OBJECT_NAME    = ARIANE 40 R/B
OBJECT_ID      = 1990-005H
CENTER_NAME    = EARTH
REF_FRAME      = TEME
TIME_SYSTEM    = UTC
MEAN_ELEMENT_THEORY = SGP/SGP4

EPOCH          = 2026-03-22T04:23:23.848224
MEAN_MOTION    = 14.39878118
ECCENTRICITY   = .00106338
INCLINATION    = 98.3057
RA_OF_ASC_NODE = 141.4705
ARG_OF_PERICENTER = 161.1222
MEAN_ANOMALY   = 199.0363

EPHEMERIS_TYPE = 0
CLASSIFICATION_TYPE = U
NORAD_CAT_ID   = 20443
ELEMENT_SET_NO = 999
REV_AT_EPOCH   = 89460
BSTAR          = .89840293E-4
MEAN_MOTION_DOT = .24E-5
MEAN_MOTION_DDOT = 0

CCSDS_OMM_VERS = 2.0
CREATION_DATE  = 
ORIGINATOR     = 

OBJECT_NAME    = DELTA 2 R/B(1)
OBJECT_ID      = 1990-008B
CENTER_NAME    = EARTH
REF_FRAME      = TEME
TIME_SYSTEM    = UTC
MEAN_ELEMENT_THEORY = SGP/SGP4

EPOCH          = 2026-03-21T18:02:45.077568
MEAN_MOTION    = 15.57484619
ECCENTRICITY   = .00806772
INCLINATION    = 35.6029
RA_OF_ASC_NODE = 95.5963
ARG_OF_PERICENTER = 10.6768
MEAN_ANOMALY   = 349.5661

EPHEMERIS_TYPE = 0
CLASSIFICATION_TYPE = U
NORAD_CAT_ID   = 20453
ELEMENT_SET_NO = 999
REV_AT_EPOCH   = 92801
BSTAR          = .80083801E-3
MEAN_MOTION_DOT = .71464E-3
MEAN_MOTION_DDOT = 0

